STARLINK-2515
1 28323C 21036AZ  21325.14774278  .00000166  00000-0  11114-4 0  3253
2 28323  53.0548 307.5664 0001722  65.3100 345.0995 15.06396928    10
